NORAD_CAT_ID,OBJECT_NAME,OBJECT_TYPE,EPOCH,MEAN_MOTION,ECCENTRICITY,INCLINATION,RA_OF_ASC_NODE,ARG_OF_PERICENTER,MEAN_ANOMALY,BSTAR,MEAN_MOTION_DOT,MEAN_MOTION_DDOT,TLE_LINE0,TLE_LINE1,TLE_LINE2,SEMIMAJOR_AXIS,PERIOD,APOGEE,PERIGEE,DECAYED
53608.0,STARLINK-4647,PAYLOAD,2023-11-07 14:13:31,15.08816678,0.0001338,53.2155,104.0096,66.6433,293.47,-0.00049902,-8.216e-05,0.0,0 STARLINK-4647,1 53608U 22104W   23311.59272516 -.00008216  00000-0 -49902-3 0  9994,2 53608  53.2155 104.0096 0001338  66.6433 293.4700 15.08816678 66847,6917.952,95.439,540.742,538.891,0.0
53608.0,STARLINK-4647,PAYLOAD,2023-11-07 17:24:18,15.08821094,0.0001576,53.2168,103.4199,86.6534,273.4639,-0.00018715,-3.264e-05,0.0,0 STARLINK-4647,1 53608U 22104W   23311.72520844 -.00003264  00000-0 -18715-3 0  9995,2 53608  53.2168 103.4199 0001576  86.6534 273.4639 15.08821094 66292,6917.938,95.439,540.893,538.713,0.0
53608.0,STARLINK-4647,PAYLOAD,2023-11-08 02:56:36,15.0882744,0.0001342,53.2167,101.6333,89.4977,270.6169,-0.00013107,-2.373e-05,0.0,0 STARLINK-4647,1 53608U 22104W   23312.12264784 -.00002373  00000-0 -13107-3 0  9998,2 53608  53.2167 101.6333 0001342  89.4977 270.6169 15.08827440 66359,6917.919,95.438,540.712,538.855,0.0
53608.0,STARLINK-4647,PAYLOAD,2023-11-08 09:18:09,15.0883788,0.0001506,53.2166,100.4436,84.4123,275.704,6.4211e-05,7.34e-06,0.0,0 STARLINK-4647,1 53608U 22104W   23312.38760490  .00000734  00000-0  64211-4 0  9991,2 53608  53.2166 100.4436 0001506  84.4123 275.7040 15.08837880 66396,6917.887,95.438,540.794,538.71,0.0
53608.0,STARLINK-4647,PAYLOAD,2023-11-08 14:04:18,15.08835239,0.0001412,53.2166,99.5521,85.6447,274.4706,4.0565e-05,3.58e-06,0.0,0 STARLINK-4647,1 53608U 22104W   23312.58632710  .00000358  00000-0  40565-4 0  9994,2 53608  53.2166  99.5521 0001412  85.6447 274.4706 15.08835239 66994,6917.895,95.438,540.737,538.783,0.0
53608.0,STARLINK-4647,PAYLOAD,2023-11-08 17:15:04,15.08841748,0.0001306,53.2165,98.9569,86.1613,273.9528,0.00014092,1.956e-05,0.0,0 STARLINK-4647,1 53608U 22104W   23312.71880393  .00001956  00000-0  14092-3 0  9991,2 53608  53.2165  98.9569 0001306  86.1613 273.9528 15.08841748 67013,6917.875,95.437,540.644,538.837,0.0
53608.0,STARLINK-4647,PAYLOAD,2023-11-09 02:47:24,15.08829393,0.0001403,53.2166,97.1766,94.1048,266.0104,0.00021915,3.201e-05,0.0,0 STARLINK-4647,1 53608U 22104W   23313.11625337  .00003201  00000-0  21915-3 0  9998,2 53608  53.2166  97.1766 0001403  94.1048 266.0104 15.08829393 66501,6917.913,95.438,540.748,538.807,0.0
53608.0,STARLINK-4647,PAYLOAD,2023-11-09 09:08:55,15.08846103,0.0001967,53.2178,95.9875,83.0331,277.0885,0.00037832,5.739e-05,0.0,0 STARLINK-4647,1 53608U 22104W   23313.38120024  .00005739  00000-0  37832-3 0  9993,2 53608  53.2178  95.9875 0001967  83.0331 277.0885 15.08846103 66548,6917.862,95.437,541.087,538.366,0.0
53608.0,STARLINK-4647,PAYLOAD,2023-11-09 13:55:06,15.08825426,0.0001343,53.2181,95.0957,65.9756,294.1377,0.00023915,3.519e-05,0.0,0 STARLINK-4647,1 53608U 22104W   23313.57993752  .00003519  00000-0  23915-3 0  9991,2 53608  53.2181  95.0957 0001343  65.9756 294.1377 15.08825426 67140,6917.925,95.438,540.719,538.861,0.0
53608.0,STARLINK-4647,PAYLOAD,2023-11-09 15:30:28,15.08875269,0.0001491,53.2178,94.7984,65.2351,294.8797,-0.0003754,-6.263e-05,0.0,0 STARLINK-4647,1 53608U 22104W   23313.64615864 -.00006263  00000-0 -37540-3 0  9994,2 53608  53.2178  94.7984 0001491  65.2351 294.8797 15.08875269 67154,6917.773,95.435,540.669,538.606,0.0
53608.0,STARLINK-4647,PAYLOAD,2023-11-10 02:38:11,15.08833228,0.0001199,53.2178,92.7125,81.4977,278.6151,0.00019084,2.75e-05,0.0,0 STARLINK-4647,1 53608U 22104W   23314.10985461  .00002750  00000-0  19084-3 0  9997,2 53608  53.2178  92.7125 0001199  81.4977 278.6151 15.08833228 66655,6917.901,95.438,540.596,538.937,0.0
53608.0,STARLINK-4647,PAYLOAD,2023-11-10 08:59:44,15.08813411,5.3e-05,53.2173,91.5271,118.6565,241.448,0.00047734,7.312e-05,0.0,0 STARLINK-4647,1 53608U 22104W   23314.37482137  .00007312  00000-0  47734-3 0  9990,2 53608  53.2173  91.5271 0000530 118.6565 241.4480 15.08813411 66692,6917.962,95.439,540.193,539.46,0.0
53608.0,STARLINK-4647,PAYLOAD,2023-11-10 15:21:16,15.08834467,0.0001161,53.2172,90.3348,82.8026,277.3098,5.9072e-05,6.52e-06,0.0,0 STARLINK-4647,1 53608U 22104W   23314.63977902  .00000652  00000-0  59072-4 0  9997,2 53608  53.2172  90.3348 0001161  82.8026 277.3098 15.08834467 67304,6917.897,95.438,540.565,538.959,0.0
53608.0,STARLINK-4647,PAYLOAD,2023-11-10 16:56:39,15.08839382,0.0001234,53.2172,90.037,83.1063,277.007,7.2156e-05,8.61e-06,0.0,0 STARLINK-4647,1 53608U 22104W   23314.70601575  .00000861  00000-0  72156-4 0  9995,2 53608  53.2172  90.0370 0001234  83.1063 277.0070 15.08839382 66747,6917.882,95.438,540.601,538.894,0.0
53608.0,STARLINK-4647,PAYLOAD,2023-11-11 15:12:03,15.08847983,0.0001351,53.2173,85.8737,83.6558,276.4588,0.00012529,1.707e-05,0.0,0 STARLINK-4647,1 53608U 22104W   23315.63336835  .00001707  00000-0  12529-3 0  9999,2 53608  53.2173  85.8737 0001351  83.6558 276.4588 15.08847983 67453,6917.856,95.437,540.656,538.786,0.0
53608.0,STARLINK-4647,PAYLOAD,2023-11-11 18:22:49,15.08852136,0.000122,53.2167,85.2784,76.7822,283.3306,0.00013643,1.885e-05,0.0,0 STARLINK-4647,1 53608U 22104W   23315.76584515  .00001885  00000-0  13643-3 0  9998,2 53608  53.2167  85.2784 0001220  76.7822 283.3306 15.08852136 66904,6917.843,95.437,540.552,538.864,0.0
53608.0,STARLINK-4647,PAYLOAD,2023-11-12 11:52:04,15.08831676,0.0001361,53.2182,82.0045,104.0923,256.022,0.00020248,2.935e-05,0.0,0 STARLINK-4647,1 53608U 22104W   23316.49449632  .00002935  00000-0  20248-3 0  9995,2 53608  53.2182  82.0045 0001361 104.0923 256.0220 15.08831676 67010,6917.906,95.438,540.712,538.829,0.0
53608.0,STARLINK-4647,PAYLOAD,2023-11-12 13:27:27,15.08831927,0.0001265,53.2178,81.7068,102.3172,257.7962,0.00019794,2.863e-05,0.0,0 STARLINK-4647,1 53608U 22104W   23316.56073626  .00002863  00000-0  19794-3 0  9993,2 53608  53.2178  81.7068 0001265 102.3172 257.7962 15.08831927 67599,6917.905,95.438,540.645,538.895,0.0
53608.0,STARLINK-4647,PAYLOAD,2023-11-12 15:02:50,15.08841445,0.0001486,53.2181,81.4098,98.7372,261.3788,2.8627e-05,1.68e-06,0.0,0 STARLINK-4647,1 53608U 22104W   23316.62697387  .00000168  00000-0  28627-4 0  9998,2 53608  53.2181  81.4098 0001486  98.7372 261.3788 15.08841445 67603,6917.876,95.437,540.769,538.713,0.0
53608.0,STARLINK-4647,PAYLOAD,2023-11-13 11:42:50,15.08855031,0.0001429,53.2176,77.546,93.2272,266.8884,8.6495e-05,1.089e-05,0.0,0 STARLINK-4647,1 53608U 22104W   23317.48808247  .00001089  00000-0  86495-4 0  9992,2 53608  53.2176  77.5460 0001429  93.2272 266.8884 15.08855031 67166,6917.834,95.437,540.688,538.711,0.0
53608.0,STARLINK-4647,PAYLOAD,2023-11-13 14:53:36,15.08857157,0.0001356,53.2176,76.9522,87.9077,272.2071,0.00011657,1.569e-05,0.0,0 STARLINK-4647,1 53608U 22104W   23317.62055977  .00001569  00000-0  11657-3 0  9992,2 53608  53.2176  76.9522 0001356  87.9077 272.2071 15.08857157 67755,6917.828,95.436,540.631,538.755,0.0
53608.0,STARLINK-4647,PAYLOAD,2023-11-14 11:33:38,15.08834105,0.0001405,53.2184,73.0886,99.5192,260.5959,2.1409e-05,5.3e-07,0.0,0 STARLINK-4647,1 53608U 22104W   23318.48169838  .00000053  00000-0  21409-4 0  9993,2 53608  53.2184  73.0886 0001405  99.5192 260.5959 15.08834105 67312,6917.898,95.438,540.735,538.791,0.0
53608.0,STARLINK-4647,PAYLOAD,2023-11-14 14:44:24,15.08834969,0.000132,53.217,72.493,94.1184,265.9959,-3.3522e-05,-8.21e-06,0.0,0 STARLINK-4647,1 53608U 22104W   23318.61417492 -.00000821  00000-0 -33522-4 0  9994,2 53608  53.2170  72.4930 0001320  94.1184 265.9959 15.08834969 67900,6917.896,95.438,540.674,538.848,0.0
53608.0,STARLINK-4647,PAYLOAD,2023-11-15 11:24:24,15.08852399,0.0001412,53.2166,68.6263,95.0123,265.103,0.00013899,1.925e-05,0.0,0 STARLINK-4647,1 53608U 22104W   23319.47528392  .00001925  00000-0  13899-3 0  9999,2 53608  53.2166  68.6263 0001412  95.0123 265.1030 15.08852399 67466,6917.842,95.437,540.684,538.731,0.0
53608.0,STARLINK-4647,PAYLOAD,2023-11-15 12:59:47,15.08854373,0.0001429,53.2166,68.3289,95.7513,264.3642,0.00018307,2.628e-05,0.0,0 STARLINK-4647,1 53608U 22104W   23319.54152295  .00002628  00000-0  18307-3 0  9992,2 53608  53.2166  68.3289 0001429  95.7513 264.3642 15.08854373 68048,6917.836,95.437,540.69,538.713,0.0
53608.0,STARLINK-4647,PAYLOAD,2023-11-16 08:04:26,15.08830808,0.0001851,53.2193,64.764,91.5074,268.6131,-1.0532e-05,-4.56e-06,0.0,0 STARLINK-4647,1 53608U 22104W   23320.33641588 -.00000456  00000-0 -10532-4 0  9991,2 53608  53.2193  64.7640 0001851  91.5074 268.6131 15.08830808 67590,6917.908,95.438,541.054,538.493,0.0
53608.0,STARLINK-4647,PAYLOAD,2023-11-16 16:01:22,15.08828414,0.0001588,53.2171,63.2744,84.6651,275.4522,-7.2548e-05,-1.442e-05,0.0,0 STARLINK-4647,1 53608U 22104W   23320.66761808 -.00001442  00000-0 -72548-4 0  9996,2 53608  53.2171  63.2744 0001588  84.6651 275.4522 15.08828414 68216,6917.916,95.438,540.879,538.682,0.0
53608.0,STARLINK-4647,PAYLOAD,2023-11-17 11:06:00,15.0882124,0.0001849,53.2175,59.705,79.1508,280.9692,-0.00022582,-3.878e-05,0.0,0 STARLINK-4647,1 53608U 22104W   23321.46251056 -.00003878  00000-0 -22582-3 0  9991,2 53608  53.2175  59.7050 0001849  79.1508 280.9692 15.08821240 67768,6917.938,95.439,541.082,538.524,0.0
53608.0,STARLINK-4647,PAYLOAD,2023-11-17 12:41:24,15.08819937,0.0001746,53.2185,59.4094,76.4491,283.6695,-0.00023011,-3.946e-05,0.0,0 STARLINK-4647,1 53608U 22104W   23321.52875190 -.00003946  00000-0 -23011-3 0  9993,2 53608  53.2185  59.4094 0001746  76.4491 283.6695 15.08819937 68349,6917.942,95.439,541.015,538.599,0.0
53608.0,STARLINK-4647,PAYLOAD,2023-11-18 12:32:10,15.08846679,0.0002047,53.2201,54.9479,118.1334,241.9866,2.3873e-05,9.2e-07,0.0,0 STARLINK-4647,1 53608U 22104W   23322.52234621  .00000092  00000-0  23873-4 0  9996,2 53608  53.2201  54.9479 0002047 118.1334 241.9866 15.08846679 67923,6917.86,95.437,541.141,538.309,0.0
